$$SOE
2461288.500000000, A.D. 2026-Sep-05 00:00:00.0000, 8.463017476828402E+07, -1.774130833458113E+08, -1.423748875320251E+07,
2461295.500000000, A.D. 2026-Sep-12 00:00:00.0000, 1.013462410232013E+08, -1.694333048421775E+08, -1.171584782022545E+07,
2461302.500000000, A.D. 2026-Sep-19 00:00:00.0000, 1.174273602434704E+08, -1.603914438170440E+08, -9.120735577941447E+06,
2461309.500000000, A.D. 2026-Sep-26 00:00:00.0000, 1.327861916855619E+08, -1.503623163814618E+08, -6.469433695809133E+06,
2461316.500000000, A.D. 2026-Oct-03 00:00:00.0000, 1.473489826221795E+08, -1.394309816478304E+08, -3.779248059845783E+06,
2461323.500000000, A.D. 2026-Oct-10 00:00:00.0000, 1.610566637987431E+08, -1.276896404424988E+08, -1.067023929810867E+06,
2461330.500000000, A.D. 2026-Oct-17 00:00:00.0000, 1.738651282756247E+08, -1.152345155217533E+08, 1.651266363107599E+06,
2461337.500000000, A.D. 2026-Oct-24 00:00:00.0000, 1.857447853486614E+08, -1.021629401611862E+08, 4.360843457540646E+06,
2461344.500000000, A.D. 2026-Oct-31 00:00:00.0000, 1.966795376212894E+08, -8.857082195782951E+07, 7.048341611754317E+06,
2461351.500000000, A.D. 2026-Nov-07 00:00:00.0000, 2.066653548676578E+08, -7.455057956698221E+07, 9.701933686229095E+06,
2461358.500000000, A.D. 2026-Nov-14 00:00:00.0000, 2.157086161794034E+08, -6.018958475047734E+07, 1.231137208666894E+07,
2461365.500000000, A.D. 2026-Nov-21 00:00:00.0000, 2.238243683203144E+08, -4.556909085884444E+07, 1.486796187902132E+07,
2461372.500000000, A.D. 2026-Nov-28 00:00:00.0000, 2.310346168996021E+08, -3.076359761693345E+07, 1.736448329277453E+07,
2461379.500000000, A.D. 2026-Dec-05 00:00:00.0000, 2.373667367500049E+08, -1.584058080587553E+07, 1.979507974316532E+07,
2461386.500000000, A.D. 2026-Dec-12 00:00:00.0000, 2.428520523230374E+08, -8.605058350722166E+05, 2.215512590893214E+07,
2461393.500000000, A.D. 2026-Dec-19 00:00:00.0000, 2.475246104114953E+08, 1.412294933840672E+07, 2.444108749864073E+07,
2461400.500000000, A.D. 2026-Dec-26 00:00:00.0000, 2.514201494711302E+08, 2.906252679437733E+07, 2.665038120080459E+07,
2461407.500000000, A.D. 2027-Jan-02 00:00:00.0000, 2.545752568078207E+08, 4.391693097672885E+07, 2.878124069940984E+07,
2461414.500000000, A.D. 2027-Jan-09 00:00:00.0000, 2.570266966563163E+08, 5.865032354276192E+07, 3.083259248047975E+07,
2461421.500000000, A.D. 2027-Jan-16 00:00:00.0000, 2.588108880998240E+08, 7.323180272988570E+07, 3.280394346007670E+07,
2461428.500000000, A.D. 2027-Jan-23 00:00:00.0000, 2.599635106751153E+08, 8.763488995205852E+07, 3.469528121234958E+07,
2461435.500000000, A.D. 2027-Jan-30 00:00:00.0000, 2.605192163985869E+08, 1.018370388363715E+08, 3.650698670248629E+07,
2461442.500000000, A.D. 2027-Feb-06 00:00:00.0000, 2.605114290107687E+08, 1.158191764783396E+08, 3.823975888412587E+07,
2461449.500000000, A.D. 2027-Feb-13 00:00:00.0000, 2.599722126853641E+08, 1.295652832399312E+08, 3.989455034800977E+07,
2461456.500000000, A.D. 2027-Feb-20 00:00:00.0000, 2.589321930514310E+08, 1.430620123145131E+08, 4.147251306908774E+07,
2461463.500000000, A.D. 2027-Feb-27 00:00:00.0000, 2.574205195800517E+08, 1.562983457154430E+08, 4.297495271721804E+07,
2461470.500000000, A.D. 2027-Mar-06 00:00:00.0000, 2.554648621985210E+08, 1.692652870687405E+08, 4.440329028837714E+07,
2461477.500000000, A.D. 2027-Mar-13 00:00:00.0000, 2.530914323060990E+08, 1.819555908780066E+08, 4.575903031976625E+07,
2461484.500000000, A.D. 2027-Mar-20 00:00:00.0000, 2.503250205024083E+08, 1.943635245958797E+08, 4.704373477193363E+07,
2461491.500000000, A.D. 2027-Mar-27 00:00:00.0000, 2.471890460613177E+08, 2.064846599392357E+08, 4.825900166721213E+07,
2461498.500000000, A.D. 2027-Apr-03 00:00:00.0000, 2.437056143253548E+08, 2.183156903868918E+08, 4.940644771914910E+07,
2461505.500000000, A.D. 2027-Apr-10 00:00:00.0000, 2.398955789805620E+08, 2.298542719869375E+08, 5.048769430584101E+07,
2461512.500000000, A.D. 2027-Apr-17 00:00:00.0000, 2.357786068765399E+08, 2.410988847504515E+08, 5.150435623202932E+07,
2461519.500000000, A.D. 2027-Apr-24 00:00:00.0000, 2.313732437052317E+08, 2.520487120840286E+08, 5.245803279770833E+07,
2461526.500000000, A.D. 2027-May-01 00:00:00.0000, 2.266969795395621E+08, 2.627035360412275E+08, 5.335030075060016E+07,
2461533.500000000, A.D. 2027-May-08 00:00:00.0000, 2.217663136071081E+08, 2.730636471284026E+08, 5.418270882049447E+07,
2461540.500000000, A.D. 2027-May-15 00:00:00.0000, 2.165968161483644E+08, 2.831297678256901E+08, 5.495677376759017E+07,
2461547.500000000, A.D. 2027-May-22 00:00:00.0000, 2.112031853528545E+08, 2.929029856545502E+08, 5.567397764058958E+07,
2461554.500000000, A.D. 2027-May-29 00:00:00.0000, 2.055993024624372E+08, 3.023846929483576E+08, 5.633576562359156E+07,
2461561.500000000, A.D. 2027-Jun-05 00:00:00.0000, 1.997982857874985E+08, 3.115765352466871E+08, 5.694354448355378E+07,
2461568.500000000, A.D. 2027-Jun-12 00:00:00.0000, 1.938125415748697E+08, 3.204803676854180E+08, 5.749868170091501E+07,
2461575.500000000, A.D. 2027-Jun-19 00:00:00.0000, 1.876538114109023E+08, 3.290982175271217E+08, 5.800250512431489E+07,
2461582.500000000, A.D. 2027-Jun-26 00:00:00.0000, 1.813332165024635E+08, 3.374322517694336E+08, 5.845630300831772E+07,
2461589.500000000, A.D. 2027-Jul-03 00:00:00.0000, 1.748612990628379E+08, 3.454847491436293E+08, 5.886132434428518E+07,
2461596.500000000, A.D. 2027-Jul-10 00:00:00.0000, 1.682480609545527E+08, 3.532580759104303E+08, 5.921877941747569E+07,
2461603.500000000, A.D. 2027-Jul-17 00:00:00.0000, 1.615029997551807E+08, 3.607546648968081E+08, 5.952984053250042E+07,
2461610.500000000, A.D. 2027-Jul-24 00:00:00.0000, 1.546351425431170E+08, 3.679769972661902E+08, 5.979564284700716E+07,
2461617.500000000, A.D. 2027-Jul-31 00:00:00.0000, 1.476530779618217E+08, 3.749275868733165E+08, 6.001728526237857E+07,
2461624.500000000, A.D. 2027-Aug-07 00:00:00.0000, 1.405649865107739E+08, 3.816089680208419E+08, 6.019583145659295E+07,
2461631.500000000, A.D. 2027-Aug-14 00:00:00.0000, 1.333786669062477E+08, 3.880236860685296E+08, 6.033231122540584E+07,
2461638.500000000, A.D. 2027-Aug-21 00:00:00.0000, 1.261015592633459E+08, 3.941742872740796E+08, 6.042772178035998E+07,
2461645.500000000, A.D. 2027-Aug-28 00:00:00.0000, 1.187407686603539E+08, 4.000633088531888E+08, 6.048302877278891E+07,
2461652.500000000, A.D. 2027-Sep-04 00:00:00.0000, 1.113030880307556E+08, 4.056932715713446E+08, 6.049916734406188E+07,
2461659.500000000, A.D. 2027-Sep-11 00:00:00.0000, 1.037950191041301E+08, 4.110666740388440E+08, 6.047704326535505E+07,
2461666.500000000, A.D. 2027-Sep-18 00:00:00.0000, 9.622279163799225E+07, 4.161859879154003E+08, 6.041753409355387E+07,
2461673.500000000, A.D. 2027-Sep-25 00:00:00.0000, 8.859238127200702E+07, 4.210536538231556E+08, 6.032149030981734E+07,
2461680.500000000, A.D. 2027-Oct-02 00:00:00.0000, 8.090952617569108E+07, 4.256720778886137E+08, 6.018973643145198E+07,
2461687.500000000, A.D. 2027-Oct-09 00:00:00.0000, 7.317974260162869E+07, 4.300436288160984E+08, 6.002307209109101E+07,
2461694.500000000, A.D. 2027-Oct-16 00:00:00.0000, 6.540833949061815E+07, 4.341706353572057E+08, 5.982227307029596E+07,
2461701.500000000, A.D. 2027-Oct-23 00:00:00.0000, 5.760043246577511E+07, 4.380553841006940E+08, 5.958809226152527E+07,
2461708.500000000, A.D. 2027-Oct-30 00:00:00.0000, 4.976095766189943E+07, 4.417001181332073E+08, 5.932126057304823E+07,
2461715.500000000, A.D. 2027-Nov-06 00:00:00.0000, 4.189468429417703E+07, 4.451070376472360E+08, 5.902248797524631E+07,
2461722.500000000, A.D. 2027-Nov-13 00:00:00.0000, 3.400622404344714E+07, 4.482783003718866E+08, 5.869246470004576E+07,
2461729.500000000, A.D. 2027-Nov-20 00:00:00.0000, 2.610004021457651E+07, 4.512160195986930E+08, 5.833186214879403E+07,
2461736.500000000, A.D. 2027-Nov-27 00:00:00.0000, 1.818045833754052E+07, 4.539222627353864E+08, 5.794133360372943E+07,
2461743.500000000, A.D. 2027-Dec-04 00:00:00.0000, 1.025167623834826E+07, 4.563990512721847E+08, 5.752151500404418E+07,
2461750.500000000, A.D. 2027-Dec-11 00:00:00.0000, 2.317773074979406E+06, 4.586483611688294E+08, 5.707302575880042E+07,
2461757.500000000, A.D. 2027-Dec-18 00:00:00.0000, -5.617282345055546E+06, 4.606721232993695E+08, 5.659646954457873E+07,
2461764.500000000, A.D. 2027-Dec-25 00:00:00.0000, -1.354962377511650E+07, 4.624722239319538E+08, 5.609243507468748E+07,
2461771.500000000, A.D. 2028-Jan-01 00:00:00.0000, -2.147548019106925E+07, 4.640505052403722E+08, 5.556149683837861E+07,
$$EOE